start=new Date('2023-01-10T00:00:00.000Z').valueOf();
sats=[{"TLE_LINE1":"1 52587U 22051BD  23009.43263941  .00007987  00000-0  51938-3 0  9993","PERIOD":"95.438","CLASSIFICATION_TYPE":"U","NORAD_CAT_ID":"52587","SITE":"AFWTR","SEMIMAJOR_AXIS":"6917.890","EPOCH":"2023-01-09T10:23:00.045024","EPHEMERIS_TYPE":"0","REV_AT_EPOCH":"3718","DECAY_DATE":null,"LAUNCH_DATE":"2022-05-13","ELEMENT_SET_NO":"999","MEAN_MOTION":"15.08836786","MEAN_MOTION_DOT":"0.00007987","ARG_OF_PERICENTER":"56.6816","MEAN_ELEMENT_THEORY":"SGP4","OBJECT_TYPE":"PAYLOAD","INCLINATION":"53.2125","OBJECT_ID":"2022-051BD","BSTAR":"0.00051938000000","GP_ID":"222544884","RCS_SIZE":"LARGE","TLE_LINE2":"2 52587  53.2125 265.2885 0002127  56.6816 303.4379 15.08836786 37187","PERIAPSIS":"538.284","COUNTRY_CODE":"US","OBJECT_NAME":"STARLINK-3867","RA_OF_ASC_NODE":"265.2885","ECCENTRICITY":"0.00021270","TIME_SYSTEM":"UTC","FILE":"3737263","CENTER_NAME":"EARTH","MEAN_MOTION_DDOT":"0.0000000000000","MEAN_ANOMALY":"303.4379","APOAPSIS":"541.227","REF_FRAME":"TEME"},{"MEAN_ELEMENT_THEORY":"SGP4","ARG_OF_PERICENTER":"30.2852","MEAN_MOTION_DOT":"0.00002879","MEAN_MOTION":"15.08848595","ELEMENT_SET_NO":"999","INCLINATION":"53.2163","OBJECT_TYPE":"PAYLOAD","CLASSIFICATION_TYPE":"U","PERIOD":"95.437","TLE_LINE1":"1 52588U 22051BE  23009.69390763  .00002879  00000-0  19889-3 0  9999","LAUNCH_DATE":"2022-05-13","DECAY_DATE":null,"REV_AT_EPOCH":"3729","SEMIMAJOR_AXIS":"6917.854","EPOCH":"2023-01-09T16:39:13.619232","EPHEMERIS_TYPE":"0","SITE":"AFWTR","NORAD_CAT_ID":"52588","MEAN_MOTION_DDOT":"0.0000000000000","CENTER_NAME":"EARTH","FILE":"3737401","ECCENTRICITY":"0.00027310","TIME_SYSTEM":"UTC","APOAPSIS":"541.608","REF_FRAME":"TEME","MEAN_ANOMALY":"329.8297","GP_ID":"222577286","BSTAR":"0.00019889000000","OBJECT_ID":"2022-051BE","RA_OF_ASC_NODE":"264.1115","COUNTRY_CODE":"US","OBJECT_NAME":"STARLINK-3917","TLE_LINE2":"2 52588  53.2163 264.1115 0002731  30.2852 329.8297 15.08848595 37297","PERIAPSIS":"537.830","RCS_SIZE":"LARGE"},{"REF_FRAME":"TEME","APOAPSIS":"541.402","MEAN_ANOMALY":"313.7995","MEAN_MOTION_DDOT":"0.0000000000000","CENTER_NAME":"EARTH","FILE":"3737263","ECCENTRICITY":"0.00024740","TIME_SYSTEM":"UTC","RA_OF_ASC_NODE":"69.5279","COUNTRY_CODE":"US","OBJECT_NAME":"STARLINK-4019","PERIAPSIS":"537.979","TLE_LINE2":"2 52598  53.2157  69.5279 0002474  46.3201 313.7995 15.08858043 37206","RCS_SIZE":"LARGE","GP_ID":"222545384","BSTAR":"0.00041708000000","OBJECT_ID":"2022-052A","INCLINATION":"53.2157","OBJECT_TYPE":"PAYLOAD","MEAN_ELEMENT_THEORY":"SGP4","ARG_OF_PERICENTER":"46.3201","MEAN_MOTION_DOT":"0.00006359","MEAN_MOTION":"15.08858043","ELEMENT_SET_NO":"999","LAUNCH_DATE":"2022-05-14","DECAY_DATE":null,"REV_AT_EPOCH":"3720","EPOCH":"2023-01-09T14:23:26.643552","SEMIMAJOR_AXIS":"6917.825","EPHEMERIS_TYPE":"0","SITE":"AFETR","NORAD_CAT_ID":"52598","CLASSIFICATION_TYPE":"U","PERIOD":"95.436","TLE_LINE1":"1 52598U 22052A   23009.59961393  .00006359  00000-0  41708-3 0  9995"},{"NORAD_CAT_ID":"52599","DECAY_DATE":null,"LAUNCH_DATE":"2022-05-14","REV_AT_EPOCH":"3725","SITE":"AFETR","SEMIMAJOR_AXIS":"6917.891","EPHEMERIS_TYPE":"0","EPOCH":"2023-01-09T10:40:15.339936","TLE_LINE1":"1 52599U 22052B   23009.44462199  .00001576  00000-0  11715-3 0  9991","CLASSIFICATION_TYPE":"U","PERIOD":"95.438","OBJECT_TYPE":"PAYLOAD","INCLINATION":"53.2184","MEAN_MOTION":"15.08836629","MEAN_MOTION_DOT":"0.00001576","ELEMENT_SET_NO":"999","ARG_OF_PERICENTER":"32.2599","MEAN_ELEMENT_THEORY":"SGP4","COUNTRY_CODE":"US","RA_OF_ASC_NODE":"65.2221","OBJECT_NAME":"STARLINK-4024","PERIAPSIS":"538.113","TLE_LINE2":"2 52599  53.2184  65.2221 0002374  32.2599 327.8538 15.08836629 37250","RCS_SIZE":"LARGE","OBJECT_ID":"2022-052B","GP_ID":"222545134","BSTAR":"0.00011715000000","MEAN_ANOMALY":"327.8538","REF_FRAME":"TEME","APOAPSIS":"541.398","ECCENTRICITY":"0.00023740","TIME_SYSTEM":"UTC","CENTER_NAME":"EARTH","MEAN_MOTION_DDOT":"0.0000000000000","FILE":"3737263"},{"BSTAR":"0.00031229000000","GP_ID":"222577876","OBJECT_ID":"2022-052C","TLE_LINE2":"2 52600  53.2187  64.6866 0002855  23.8034 336.3089 15.08846972 36840","RCS_SIZE":"MEDIUM","PERIAPSIS":"537.749","COUNTRY_CODE":"US","OBJECT_NAME":"STARLINK-4026","RA_OF_ASC_NODE":"64.6866","FILE":"3737424","MEAN_MOTION_DDOT":"0.0000000000000","CENTER_NAME":"EARTH","ECCENTRICITY":"0.00028550","TIME_SYSTEM":"UTC","APOAPSIS":"541.699","REF_FRAME":"TEME","MEAN_ANOMALY":"336.3089","PERIOD":"95.437","CLASSIFICATION_TYPE":"U","TLE_LINE1":"1 52600U 22052C   23009.56510408  .00004686  00000-0  31229-3 0  9991","SEMIMAJOR_AXIS":"6917.859","EPHEMERIS_TYPE":"0","EPOCH":"2023-01-09T13:33:44.992512","SITE":"AFETR","REV_AT_EPOCH":"3684","DECAY_DATE":null,"LAUNCH_DATE":"2022-05-14","NORAD_CAT_ID":"52600","MEAN_ELEMENT_THEORY":"SGP4","ARG_OF_PERICENTER":"23.8034","ELEMENT_SET_NO":"999","MEAN_MOTION_DOT":"0.00004686","MEAN_MOTION":"15.08846972","INCLINATION":"53.2187","OBJECT_TYPE":"PAYLOAD"},{"TLE_LINE1":"1 52601U 22052D   23009.43998514  .00010034  00000-0  64733-3 0  9996","PERIOD":"95.436","CLASSIFICATION_TYPE":"U","NORAD_CAT_ID":"52601","EPHEMERIS_TYPE":"0","SEMIMAJOR_AXIS":"6917.828","EPOCH":"2023-01-09T10:33:34.716096","SITE":"AFETR","REV_AT_EPOCH":"3725","DECAY_DATE":null,"LAUNCH_DATE":"2022-05-14","ELEMENT_SET_NO":"999","MEAN_MOTION":"15.08857121","MEAN_MOTION_DOT":"0.00010034","MEAN_ELEMENT_THEORY":"SGP4","ARG_OF_PERICENTER":"20.1317","OBJECT_TYPE":"PAYLOAD","INCLINATION":"53.2174","OBJECT_ID":"2022-052D","BSTAR":"0.00064733000000","GP_ID":"222544634","TLE_LINE2":"2 52601  53.2174  65.2392 0002982  20.1317 339.9792 15.08857121 37257","RCS_SIZE":"LARGE","PERIAPSIS":"537.630","OBJECT_NAME":"STARLINK-4027","COUNTRY_CODE":"US","RA_OF_ASC_NODE":"65.2392","ECCENTRICITY":"0.00029820","TIME_SYSTEM":"UTC","FILE":"3737263","MEAN_MOTION_DDOT":"0.0000000000000","CENTER_NAME":"EARTH","APOAPSIS":"541.756","REF_FRAME":"TEME","MEAN_ANOMALY":"339.9792"},{"BSTAR":"0.00024667000000","GP_ID":"222582672","OBJECT_ID":"2022-052E","TLE_LINE2":"2 52602  53.2166  64.6561 0002125  45.4469 314.6697 15.08847939 36841","PERIAPSIS":"538.251","RCS_SIZE":"LARGE","COUNTRY_CODE":"US","RA_OF_ASC_NODE":"64.6561","OBJECT_NAME":"STARLINK-4012","FILE":"3737644","CENTER_NAME":"EARTH","MEAN_MOTION_DDOT":"0.0000000000000","ECCENTRICITY":"0.00021250","TIME_SYSTEM":"UTC","MEAN_ANOMALY":"314.6697","REF_FRAME":"TEME","APOAPSIS":"541.191","PERIOD":"95.437","CLASSIFICATION_TYPE":"U","TLE_LINE1":"1 52602U 22052E   23009.56879577  .00003641  00000-0  24667-3 0  9996","SITE":"AFETR","SEMIMAJOR_AXIS":"6917.856","EPOCH":"2023-01-09T13:39:03.954528","EPHEMERIS_TYPE":"0","DECAY_DATE":null,"LAUNCH_DATE":"2022-05-14","REV_AT_EPOCH":"3684","NORAD_CAT_ID":"52602","ARG_OF_PERICENTER":"45.4469","MEAN_ELEMENT_THEORY":"SGP4","ELEMENT_SET_NO":"999","MEAN_MOTION":"15.08847939","MEAN_MOTION_DOT":"0.00003641","INCLINATION":"53.2166","OBJECT_TYPE":"PAYLOAD"},{"INCLINATION":"53.2159","OBJECT_TYPE":"PAYLOAD","MEAN_ELEMENT_THEORY":"SGP4","ARG_OF_PERICENTER":"22.7136","MEAN_MOTION_DOT":"0.00005788","MEAN_MOTION":"15.08858397","ELEMENT_SET_NO":"999","LAUNCH_DATE":"2022-05-14","DECAY_DATE":null,"REV_AT_EPOCH":"3725","SEMIMAJOR_AXIS":"6917.824","EPOCH":"2023-01-09T10:07:05.133216","EPHEMERIS_TYPE":"0","SITE":"AFETR","NORAD_CAT_ID":"52603","CLASSIFICATION_TYPE":"U","PERIOD":"95.436","TLE_LINE1":"1 52603U 22052F   23009.42158719  .00005788  00000-0  38125-3 0  9998","APOAPSIS":"542.019","REF_FRAME":"TEME","MEAN_ANOMALY":"337.4004","MEAN_MOTION_DDOT":"0.0000000000000","CENTER_NAME":"EARTH","FILE":"3737263","ECCENTRICITY":"0.00033680","TIME_SYSTEM":"UTC","COUNTRY_CODE":"US","OBJECT_NAME":"STARLINK-4016","RA_OF_ASC_NODE":"65.3358","TLE_LINE2":"2 52603  53.2159  65.3358 0003368  22.7136 337.4004 15.08858397 37256","RCS_SIZE":"LARGE","PERIAPSIS":"537.359","GP_ID":"222545635","BSTAR":"0.00038125000000","OBJECT_ID":"2022-052F"},{"GP_ID":"222543884","BSTAR":"0.00036046000000","OBJECT_ID":"2022-052G","COUNTRY_CODE":"US","RA_OF_ASC_NODE":"65.2872","OBJECT_NAME":"STARLINK-4013","TLE_LINE2":"2 52604  53.2161  65.2872 0002641  27.3572 332.7559 15.08849767 36453","RCS_SIZE":"LARGE","PERIAPSIS":"537.889","CENTER_NAME":"EARTH","MEAN_MOTION_DDOT":"0.0000000000000","FILE":"3737263","ECCENTRICITY":"0.00026410","TIME_SYSTEM":"UTC","MEAN_ANOMALY":"332.7559","REF_FRAME":"TEME","APOAPSIS":"541.543","CLASSIFICATION_TYPE":"U","PERIOD":"95.437","TLE_LINE1":"1 52604U 22052G   23009.42894272  .00005455  00000-0  36046-3 0  9991","REV_AT_EPOCH":"3645","DECAY_DATE":null,"LAUNCH_DATE":"2022-05-14","SITE":"AFETR","SEMIMAJOR_AXIS":"6917.851","EPOCH":"2023-01-09T10:17:40.651008","EPHEMERIS_TYPE":"0","NORAD_CAT_ID":"52604","ARG_OF_PERICENTER":"27.3572","MEAN_ELEMENT_THEORY":"SGP4","MEAN_MOTION_DOT":"0.00005455","MEAN_MOTION":"15.08849767","ELEMENT_SET_NO":"999","INCLINATION":"53.2161","OBJECT_TYPE":"PAYLOAD"},{"MEAN_ANOMALY":"315.6534","REF_FRAME":"TEME","APOAPSIS":"541.279","CENTER_NAME":"EARTH","MEAN_MOTION_DDOT":"0.0000000000000","FILE":"3737493","ECCENTRICITY":"0.00022440","TIME_SYSTEM":"UTC","COUNTRY_CODE":"US","RA_OF_ASC_NODE":"70.1319","OBJECT_NAME":"STARLINK-4000","TLE_LINE2":"2 52605  53.2168  70.1319 0002244  44.4638 315.6534 15.08846299 36757","RCS_SIZE":"LARGE","PERIAPSIS":"538.174","GP_ID":"222578932","BSTAR":"0.00016035000000","OBJECT_ID":"2022-052H","INCLINATION":"53.2168","OBJECT_TYPE":"PAYLOAD","ARG_OF_PERICENTER":"44.4638","MEAN_ELEMENT_THEORY":"SGP4","MEAN_MOTION":"15.08846299","MEAN_MOTION_DOT":"0.00002265","ELEMENT_SET_NO":"999","LAUNCH_DATE":"2022-05-14","DECAY_DATE":null,"REV_AT_EPOCH":"3675","SITE":"AFETR","EPHEMERIS_TYPE":"0","SEMIMAJOR_AXIS":"6917.861","EPOCH":"2023-01-09T11:07:22.694304","NORAD_CAT_ID":"52605","CLASSIFICATION_TYPE":"U","PERIOD":"95.437","TLE_LINE1":"1 52605U 22052H   23009.46345711  .00002265  00000-0  16035-3 0  9997"}];
